ASTROCAST-0403          
1 55111U 23001DG  26068.82333059  .00013959  00000+0  51317-3 0  9990
2 55111  97.5604 161.3228 0004771 338.0704  22.0330 15.28004949129377
STARLINK-32635          
1 62155U 24224S   26068.30572861  .00025123  00000+0  91924-3 0  9997
2 62155  42.9992 167.8490 0000431 242.1694 117.9114 15.27584108 72179
